ONEWEB-0589             
1 54655U 22166P   25354.25075376  .00000019  00000+0  14266-4 0  9998
2 54655  87.9222 279.6801 0002166 100.1557 259.9822 13.21827357147901
ONEWEB-0590             
1 54656U 22166Q   25354.50238992  .00000100  00000+0  20996-3 0  9999
2 54656  87.9226 279.6069 0001377  83.4833 276.6458 13.21826281147923
ONEWEB-0591             
1 54657U 22166R   25354.28696034  .00000054  00000+0  99441-4 0  9990
2 54657  87.9222 279.6735 0001747  78.9663 281.1668 13.21825346147926
ONEWEB-0592             
1 54658U 22166S   25354.29025298  .00000045  00000+0  78098-4 0  9995
2 54658  87.9232 279.6365 0001799  78.0872 282.0464 13.21825896147808
ONEWEB-0593             
1 54659U 22166T   25354.23758608  .00000089  00000+0  18297-3 0  9990
2 54659  87.9222 279.6729 0001882  77.1652 282.9692 13.21827904147906
ONEWEB-0594             
1 54660U 22166U   25354.33303754  .00000055  00000+0  10065-3 0  9999
2 54660  87.9225 279.6717 0001762  74.2268 285.9060 13.21825153147935
ONEWEB-0595             
1 54661U 22166V   25354.53708437  .00000046  00000+0  79432-4 0  9993
2 54661  87.9223 279.6040 0001655  72.0034 288.1280 13.21825123147937
ONEWEB-0596             
1 54662U 22166W   25354.28366977  .00000156  00000+0  34734-3 0  9992
2 54662  87.9225 279.6715 0001695  76.6216 283.5107 13.21825144147902
